start=new Date('2021-12-06T00:00:00.000Z').valueOf();
sats=[{"TIME_SYSTEM":"UTC","TLE_LINE1":"1 44772U 19074BM  21339.83016323  .00000359  00000-0  43020-4 0  9999","SEMIMAJOR_AXIS":"6925.380","OBJECT_NAME":"STARLINK-1068","BSTAR":"0.00004302000000","APOAPSIS":"548.442","PERIAPSIS":"546.047","ARG_OF_PERICENTER":"59.8831","CLASSIFICATION_TYPE":"U","RCS_SIZE":"LARGE","PERIOD":"95.593","OBJECT_ID":"2019-074BM","TLE_LINE2":"2 44772  53.0559 346.6586 0001729  59.8831 300.2329 15.06389900114112","INCLINATION":"53.0559","OBJECT_TYPE":"PAYLOAD","EPHEMERIS_TYPE":"0","FILE":"3233515","MEAN_MOTION_DDOT":"0.0000000000000","RA_OF_ASC_NODE":"346.6586","COUNTRY_CODE":"US","ECCENTRICITY":"0.00017290","CENTER_NAME":"EARTH","DECAY_DATE":null,"SITE":"AFETR","MEAN_ELEMENT_THEORY":"SGP4","REF_FRAME":"TEME","EPOCH":"2021-12-05T19:55:26.103072","NORAD_CAT_ID":"44772","GP_ID":"191167729","REV_AT_EPOCH":"11411","MEAN_MOTION_DOT":"0.00000359","ELEMENT_SET_NO":"999","LAUNCH_DATE":"2019-11-11","MEAN_ANOMALY":"300.2329","MEAN_MOTION":"15.06389900"},{"LAUNCH_DATE":"2020-01-07","MEAN_MOTION_DOT":"-0.00001036","ELEMENT_SET_NO":"999","MEAN_MOTION":"15.06395738","MEAN_ANOMALY":"262.5935","NORAD_CAT_ID":"44914","REV_AT_EPOCH":"10548","GP_ID":"191168745","REF_FRAME":"TEME","MEAN_ELEMENT_THEORY":"SGP4","SITE":"AFETR","EPOCH":"2021-12-05T18:43:47.178624","ECCENTRICITY":"0.00020670","COUNTRY_CODE":"US","DECAY_DATE":null,"CENTER_NAME":"EARTH","EPHEMERIS_TYPE":"0","OBJECT_TYPE":"PAYLOAD","RA_OF_ASC_NODE":"126.8823","MEAN_MOTION_DDOT":"0.0000000000000","FILE":"3233515","RCS_SIZE":"LARGE","INCLINATION":"53.0533","TLE_LINE2":"2 44914  53.0533 126.8823 0002067  97.5289 262.5935 15.06395738105485","OBJECT_ID":"2020-001A","PERIOD":"95.592","OBJECT_NAME":"STARLINK-1073","ARG_OF_PERICENTER":"97.5289","CLASSIFICATION_TYPE":"U","APOAPSIS":"548.658","PERIAPSIS":"545.795","BSTAR":"-0.00005062400000","TLE_LINE1":"1 44914U 20001A   21339.78040716 -.00001036  00000-0 -50624-4 0  9999","TIME_SYSTEM":"UTC","SEMIMAJOR_AXIS":"6925.362"},{"SEMIMAJOR_AXIS":"6925.352","TLE_LINE1":"1 44915U 20001B   21339.67719878 -.00000594  00000-0 -21003-4 0  9997","TIME_SYSTEM":"UTC","CLASSIFICATION_TYPE":"U","ARG_OF_PERICENTER":"91.4098","APOAPSIS":"548.447","PERIAPSIS":"545.988","BSTAR":"-0.00002100300000","OBJECT_NAME":"STARLINK-1084","INCLINATION":"53.0549","TLE_LINE2":"2 44915  53.0549 127.3450 0001775  91.4098 268.7094 15.06398732105471","OBJECT_ID":"2020-001B","PERIOD":"95.592","RCS_SIZE":"LARGE","MEAN_MOTION_DDOT":"0.0000000000000","RA_OF_ASC_NODE":"127.3450","FILE":"3233515","EPHEMERIS_TYPE":"0","OBJECT_TYPE":"PAYLOAD","DECAY_DATE":null,"CENTER_NAME":"EARTH","COUNTRY_CODE":"US","ECCENTRICITY":"0.00017750","EPOCH":"2021-12-05T16:15:09.974592","REF_FRAME":"TEME","MEAN_ELEMENT_THEORY":"SGP4","SITE":"AFETR","REV_AT_EPOCH":"10547","GP_ID":"191169496","NORAD_CAT_ID":"44915","MEAN_MOTION":"15.06398732","MEAN_ANOMALY":"268.7094","LAUNCH_DATE":"2020-01-07","ELEMENT_SET_NO":"999","MEAN_MOTION_DOT":"-0.00000594"},{"EPOCH":"2021-12-05T12:00:55.987200","SITE":"AFETR","MEAN_ELEMENT_THEORY":"SGP4","REF_FRAME":"TEME","DECAY_DATE":null,"CENTER_NAME":"EARTH","COUNTRY_CODE":"US","ECCENTRICITY":"0.00038550","MEAN_MOTION":"15.94243517","MEAN_ANOMALY":"331.2889","ELEMENT_SET_NO":"999","MEAN_MOTION_DOT":"0.00854814","LAUNCH_DATE":"2020-01-07","GP_ID":"191148029","REV_AT_EPOCH":"10627","NORAD_CAT_ID":"44916","APOAPSIS":"292.996","PERIAPSIS":"287.854","BSTAR":"0.00225040000000","CLASSIFICATION_TYPE":"U","ARG_OF_PERICENTER":"28.8351","OBJECT_NAME":"STARLINK-1097","SEMIMAJOR_AXIS":"6668.560","TLE_LINE1":"1 44916U 20001C   21339.50064800  .00854814  32640-3  22504-2 0  9991","TIME_SYSTEM":"UTC","RA_OF_ASC_NODE":"69.0043","MEAN_MOTION_DDOT":"0.0003264000000","FILE":"3233488","OBJECT_TYPE":"PAYLOAD","EPHEMERIS_TYPE":"0","PERIOD":"90.325","INCLINATION":"53.0502","TLE_LINE2":"2 44916  53.0502  69.0043 0003855  28.8351 331.2889 15.94243517106272","OBJECT_ID":"2020-001C","RCS_SIZE":"LARGE"},{"FILE":"3233515","MEAN_MOTION_DDOT":"0.0000000000000","RA_OF_ASC_NODE":"126.4386","EPHEMERIS_TYPE":"0","OBJECT_TYPE":"PAYLOAD","OBJECT_ID":"2020-001D","TLE_LINE2":"2 44917  53.0535 126.4386 0001535 100.4874 259.6288 15.06400047105504","INCLINATION":"53.0535","PERIOD":"95.592","RCS_SIZE":"LARGE","ARG_OF_PERICENTER":"100.4874","CLASSIFICATION_TYPE":"U","BSTAR":"0.00004088200000","PERIAPSIS":"546.150","APOAPSIS":"548.276","OBJECT_NAME":"STARLINK-1098","SEMIMAJOR_AXIS":"6925.348","TIME_SYSTEM":"UTC","TLE_LINE1":"1 44917U 20001D   21339.87991970  .00000327  00000-0  40882-4 0  9994","MEAN_ANOMALY":"259.6288","MEAN_MOTION":"15.06400047","LAUNCH_DATE":"2020-01-07","ELEMENT_SET_NO":"999","MEAN_MOTION_DOT":"0.00000327","REV_AT_EPOCH":"10550","GP_ID":"191167994","NORAD_CAT_ID":"44917","EPOCH":"2021-12-05T21:07:05.062080","MEAN_ELEMENT_THEORY":"SGP4","REF_FRAME":"TEME","SITE":"AFETR","CENTER_NAME":"EARTH","DECAY_DATE":null,"COUNTRY_CODE":"US","ECCENTRICITY":"0.00015350"},{"PERIAPSIS":"546.073","APOAPSIS":"548.393","BSTAR":"-0.00004897200000","CLASSIFICATION_TYPE":"U","ARG_OF_PERICENTER":"93.1677","OBJECT_NAME":"STARLINK-1099","SEMIMAJOR_AXIS":"6925.368","TLE_LINE1":"1 44918U 20001E   21339.89098062 -.00001011  00000-0 -48972-4 0  9998","TIME_SYSTEM":"UTC","MEAN_MOTION_DDOT":"0.0000000000000","RA_OF_ASC_NODE":"126.3931","FILE":"3233515","OBJECT_TYPE":"PAYLOAD","EPHEMERIS_TYPE":"0","PERIOD":"95.593","INCLINATION":"53.0547","OBJECT_ID":"2020-001E","TLE_LINE2":"2 44918  53.0547 126.3931 0001675  93.1677 266.9504 15.06393733106244","RCS_SIZE":"LARGE","EPOCH":"2021-12-05T21:23:00.725568","SITE":"AFETR","REF_FRAME":"TEME","MEAN_ELEMENT_THEORY":"SGP4","DECAY_DATE":null,"CENTER_NAME":"EARTH","COUNTRY_CODE":"US","ECCENTRICITY":"0.00016750","MEAN_MOTION":"15.06393733","MEAN_ANOMALY":"266.9504","MEAN_MOTION_DOT":"-0.00001011","ELEMENT_SET_NO":"999","LAUNCH_DATE":"2020-01-07","GP_ID":"191169246","REV_AT_EPOCH":"10624","NORAD_CAT_ID":"44918"},{"EPOCH":"2021-12-05T16:57:37.979712","MEAN_ELEMENT_THEORY":"SGP4","REF_FRAME":"TEME","SITE":"AFETR","DECAY_DATE":null,"CENTER_NAME":"EARTH","COUNTRY_CODE":"US","ECCENTRICITY":"0.00019120","MEAN_MOTION":"15.06406211","MEAN_ANOMALY":"266.7393","LAUNCH_DATE":"2020-01-07","ELEMENT_SET_NO":"999","MEAN_MOTION_DOT":"0.00001113","REV_AT_EPOCH":"10547","GP_ID":"191168996","NORAD_CAT_ID":"44920","ARG_OF_PERICENTER":"93.3815","CLASSIFICATION_TYPE":"U","APOAPSIS":"548.519","PERIAPSIS":"545.870","BSTAR":"0.00009363200000","OBJECT_NAME":"STARLINK-1102","SEMIMAJOR_AXIS":"6925.330","TLE_LINE1":"1 44920U 20001G   21339.70668958  .00001113  00000-0  93632-4 0  9992","TIME_SYSTEM":"UTC","RA_OF_ASC_NODE":"127.2108","MEAN_MOTION_DDOT":"0.0000000000000","FILE":"3233515","EPHEMERIS_TYPE":"0","OBJECT_TYPE":"PAYLOAD","INCLINATION":"53.0542","TLE_LINE2":"2 44920  53.0542 127.2108 0001912  93.3815 266.7393 15.06406211105472","OBJECT_ID":"2020-001G","PERIOD":"95.592","RCS_SIZE":"LARGE"},{"SEMIMAJOR_AXIS":"6925.376","TLE_LINE1":"1 44921U 20001H   21339.72879863 -.00000587  00000-0 -20530-4 0  9997","TIME_SYSTEM":"UTC","ARG_OF_PERICENTER":"80.3775","CLASSIFICATION_TYPE":"U","PERIAPSIS":"546.478","APOAPSIS":"548.005","BSTAR":"-0.00002053000000","OBJECT_NAME":"STARLINK-1103","INCLINATION":"53.0484","TLE_LINE2":"2 44921  53.0484 127.1340 0001103  80.3775 279.7339 15.06390885105459","OBJECT_ID":"2020-001H","PERIOD":"95.593","RCS_SIZE":"LARGE","RA_OF_ASC_NODE":"127.1340","MEAN_MOTION_DDOT":"0.0000000000000","FILE":"3233515","EPHEMERIS_TYPE":"0","OBJECT_TYPE":"PAYLOAD","DECAY_DATE":null,"CENTER_NAME":"EARTH","ECCENTRICITY":"0.00011030","COUNTRY_CODE":"US","EPOCH":"2021-12-05T17:29:28.201632","MEAN_ELEMENT_THEORY":"SGP4","REF_FRAME":"TEME","SITE":"AFETR","REV_AT_EPOCH":"10545","GP_ID":"191167744","NORAD_CAT_ID":"44921","MEAN_MOTION":"15.06390885","MEAN_ANOMALY":"279.7339","LAUNCH_DATE":"2020-01-07","MEAN_MOTION_DOT":"-0.00000587","ELEMENT_SET_NO":"999"},{"LAUNCH_DATE":"2020-01-07","ELEMENT_SET_NO":"999","MEAN_MOTION_DOT":"-0.00000747","MEAN_ANOMALY":"262.4254","MEAN_MOTION":"15.06395404","NORAD_CAT_ID":"44922","REV_AT_EPOCH":"10550","GP_ID":"191168495","MEAN_ELEMENT_THEORY":"SGP4","REF_FRAME":"TEME","SITE":"AFETR","EPOCH":"2021-12-05T21:28:19.136352","ECCENTRICITY":"0.00018530","COUNTRY_CODE":"US","CENTER_NAME":"EARTH","DECAY_DATE":null,"EPHEMERIS_TYPE":"0","OBJECT_TYPE":"PAYLOAD","FILE":"3233515","MEAN_MOTION_DDOT":"0.0000000000000","RA_OF_ASC_NODE":"126.3660","RCS_SIZE":"LARGE","TLE_LINE2":"2 44922  53.0530 126.3660 0001853  97.6945 262.4254 15.06395404105503","OBJECT_ID":"2020-001J","INCLINATION":"53.0530","PERIOD":"95.592","OBJECT_NAME":"STARLINK-1104","ARG_OF_PERICENTER":"97.6945","CLASSIFICATION_TYPE":"U","BSTAR":"-0.00003125500000","APOAPSIS":"548.511","PERIAPSIS":"545.944","TIME_SYSTEM":"UTC","TLE_LINE1":"1 44922U 20001J   21339.89466593 -.00000747  00000-0 -31255-4 0  9992","SEMIMAJOR_AXIS":"6925.363"},{"PERIAPSIS":"545.826","APOAPSIS":"548.564","BSTAR":"0.00007643400000","ARG_OF_PERICENTER":"97.7754","CLASSIFICATION_TYPE":"U","OBJECT_NAME":"STARLINK-1106","SEMIMAJOR_AXIS":"6925.330","TLE_LINE1":"1 44923U 20001K   21339.78777778  .00000857  00000-0  76434-4 0  9999","TIME_SYSTEM":"UTC","RA_OF_ASC_NODE":"126.8471","MEAN_MOTION_DDOT":"0.0000000000000","FILE":"3233515","OBJECT_TYPE":"PAYLOAD","EPHEMERIS_TYPE":"0","PERIOD":"95.592","INCLINATION":"53.0531","TLE_LINE2":"2 44923  53.0531 126.8471 0001977  97.7754 262.3459 15.06406070105481","OBJECT_ID":"2020-001K","RCS_SIZE":"LARGE","EPOCH":"2021-12-05T18:54:24.000192","SITE":"AFETR","REF_FRAME":"TEME","MEAN_ELEMENT_THEORY":"SGP4","DECAY_DATE":null,"CENTER_NAME":"EARTH","COUNTRY_CODE":"US","ECCENTRICITY":"0.00019770","MEAN_MOTION":"15.06406070","MEAN_ANOMALY":"262.3459","ELEMENT_SET_NO":"999","MEAN_MOTION_DOT":"0.00000857","LAUNCH_DATE":"2020-01-07","GP_ID":"191168746","REV_AT_EPOCH":"10548","NORAD_CAT_ID":"44923"}];
